[{"OBJECT_NAME":"FENGYUN 1C DEB","OBJECT_ID":"1999-025ADV","EPOCH":"2026-04-05T03:43:26.745888","MEAN_MOTION":13.59605422,"ECCENTRICITY":0.02805976,"INCLINATION":98.6165,"RA_OF_ASC_NODE":337.3741,"ARG_OF_PERICENTER":63.5108,"MEAN_ANOMALY":85.2906,"EPHEMERIS_TYPE":0,"CLASSIFICATION_TYPE":"U","NORAD_CAT_ID":30406,"ELEMENT_SET_NO":999,"REV_AT_EPOCH":94707,"BSTAR":0.0020631412,"MEAN_MOTION_DOT":1.948e-5,"MEAN_MOTION_DDOT":0},{"OBJECT_NAME":"FENGYUN 1C DEB","OBJECT_ID":"1999-025ADY","EPOCH":"2026-04-04T22:45:08.660160","MEAN_MOTION":14.04059769,"ECCENTRICITY":0.01680939,"INCLINATION":98.4875,"RA_OF_ASC_NODE":79.8303,"ARG_OF_PERICENTER":45.7258,"MEAN_ANOMALY":14.2197,"EPHEMERIS_TYPE":0,"CLASSIFICATION_TYPE":"U","NORAD_CAT_ID":30409,"ELEMENT_SET_NO":999,"REV_AT_EPOCH":98018,"BSTAR":0.0011526816,"MEAN_MOTION_DOT":2.03e-5,"MEAN_MOTION_DDOT":0},{"OBJECT_NAME":"FENGYUN 1C DEB","OBJECT_ID":"1999-025AEA","EPOCH":"2026-04-05T06:21:45.595584","MEAN_MOTION":14.08520508,"ECCENTRICITY":0.01206518,"INCLINATION":98.5793,"RA_OF_ASC_NODE":5.3335,"ARG_OF_PERICENTER":144.262,"MEAN_ANOMALY":216.6702,"EPHEMERIS_TYPE":0,"CLASSIFICATION_TYPE":"U","NORAD_CAT_ID":30411,"ELEMENT_SET_NO":999,"REV_AT_EPOCH":97581,"BSTAR":0.002175161,"MEAN_MOTION_DOT":3.953e-5,"MEAN_MOTION_DDOT":0},{"OBJECT_NAME":"FENGYUN 1C DEB","OBJECT_ID":"1999-025AEC","EPOCH":"2026-04-05T07:19:15.494880","MEAN_MOTION":14.3405144,"ECCENTRICITY":0.00453996,"INCLINATION":102.0609,"RA_OF_ASC_NODE":17.3219,"ARG_OF_PERICENTER":281.5599,"MEAN_ANOMALY":208.4454,"EPHEMERIS_TYPE":0,"CLASSIFICATION_TYPE":"U","NORAD_CAT_ID":30413,"ELEMENT_SET_NO":999,"REV_AT_EPOCH":98766,"BSTAR":0.0023942294,"MEAN_MOTION_DOT":6.703e-5,"MEAN_MOTION_DDOT":0},{"OBJECT_NAME":"FENGYUN 1C DEB","OBJECT_ID":"1999-025AED","EPOCH":"2026-04-05T06:36:42.628032","MEAN_MOTION":14.3577463,"ECCENTRICITY":0.00569576,"INCLINATION":99.0893,"RA_OF_ASC_NODE":263.4047,"ARG_OF_PERICENTER":214.9987,"MEAN_ANOMALY":144.7448,"EPHEMERIS_TYPE":0,"CLASSIFICATION_TYPE":"U","NORAD_CAT_ID":30414,"ELEMENT_SET_NO":999,"REV_AT_EPOCH":98715,"BSTAR":0.0027919235,"MEAN_MOTION_DOT":8.186e-5,"MEAN_MOTION_DDOT":0},{"OBJECT_NAME":"FENGYUN 1C DEB","OBJECT_ID":"1999-025AEE","EPOCH":"2026-04-04T03:26:18.718080","MEAN_MOTION":13.69329522,"ECCENTRICITY":0.02334511,"INCLINATION":99.6358,"RA_OF_ASC_NODE":159.5215,"ARG_OF_PERICENTER":341.6075,"MEAN_ANOMALY":46.0221,"EPHEMERIS_TYPE":0,"CLASSIFICATION_TYPE":"U","NORAD_CAT_ID":30415,"ELEMENT_SET_NO":999,"REV_AT_EPOCH":95416,"BSTAR":0.0016710023,"MEAN_MOTION_DOT":1.711e-5,"MEAN_MOTION_DDOT":0},{"OBJECT_NAME":"FENGYUN 1C DEB","OBJECT_ID":"1999-025AEF","EPOCH":"2026-04-04T08:30:55.296288","MEAN_MOTION":14.0272665,"ECCENTRICITY":0.00546729,"INCLINATION":98.8243,"RA_OF_ASC_NODE":120.3529,"ARG_OF_PERICENTER":235.3352,"MEAN_ANOMALY":124.2654,"EPHEMERIS_TYPE":0,"CLASSIFICATION_TYPE":"U","NORAD_CAT_ID":30416,"ELEMENT_SET_NO":999,"REV_AT_EPOCH":98203,"BSTAR":0.00051666227,"MEAN_MOTION_DOT":7.66e-6,"MEAN_MOTION_DDOT":0},{"OBJECT_NAME":"FENGYUN 1C DEB","OBJECT_ID":"1999-025AEG","EPOCH":"2026-04-05T06:23:21.863328","MEAN_MOTION":14.14811439,"ECCENTRICITY":0.00639515,"INCLINATION":98.7042,"RA_OF_ASC_NODE":87.3584,"ARG_OF_PERICENTER":155.1291,"MEAN_ANOMALY":222.782,"EPHEMERIS_TYPE":0,"CLASSIFICATION_TYPE":"U","NORAD_CAT_ID":30417,"ELEMENT_SET_NO":999,"REV_AT_EPOCH":98994,"BSTAR":0.00030853373,"MEAN_MOTION_DOT":5.64e-6,"MEAN_MOTION_DDOT":0},{"OBJECT_NAME":"FENGYUN 1C DEB","OBJECT_ID":"1999-025AEH","EPOCH":"2026-04-03T23:50:17.159424","MEAN_MOTION":14.86286706,"ECCENTRICITY":0.01075405,"INCLINATION":98.8517,"RA_OF_ASC_NODE":271.1297,"ARG_OF_PERICENTER":118.0295,"MEAN_ANOMALY":12.5673,"EPHEMERIS_TYPE":0,"CLASSIFICATION_TYPE":"U","NORAD_CAT_ID":30418,"ELEMENT_SET_NO":999,"REV_AT_EPOCH":2258,"BSTAR":0.0017350014,"MEAN_MOTION_DOT":0.00016927,"MEAN_MOTION_DDOT":0},{"OBJECT_NAME":"FENGYUN 1C DEB","OBJECT_ID":"1999-025AEJ","EPOCH":"2026-04-05T03:32:57.664032","MEAN_MOTION":14.18435415,"ECCENTRICITY":0.00530695,"INCLINATION":99.2527,"RA_OF_ASC_NODE":51.6286,"ARG_OF_PERICENTER":63.8254,"MEAN_ANOMALY":311.6964,"EPHEMERIS_TYPE":0,"CLASSIFICATION_TYPE":"U","NORAD_CAT_ID":30419,"ELEMENT_SET_NO":999,"REV_AT_EPOCH":98956,"BSTAR":0.00081417012,"MEAN_MOTION_DOT":1.657e-5,"MEAN_MOTION_DDOT":0},{"OBJECT_NAME":"FENGYUN 1C DEB","OBJECT_ID":"1999-025AET","EPOCH":"2026-04-05T04:00:50.445792","MEAN_MOTION":14.41201811,"ECCENTRICITY":0.00826707,"INCLINATION":98.8291,"RA_OF_ASC_NODE":2.7715,"ARG_OF_PERICENTER":2.152,"MEAN_ANOMALY":358.0007,"EPHEMERIS_TYPE":0,"CLASSIFICATION_TYPE":"U","NORAD_CAT_ID":30432,"ELEMENT_SET_NO":999,"REV_AT_EPOCH":368,"BSTAR":0.00089280249,"MEAN_MOTION_DOT":2.953e-5,"MEAN_MOTION_DDOT":0},{"OBJECT_NAME":"FENGYUN 1C DEB","OBJECT_ID":"1999-025AEV","EPOCH":"2026-04-05T04:56:08.507328","MEAN_MOTION":13.90772333,"ECCENTRICITY":0.01203072,"INCLINATION":99.0126,"RA_OF_ASC_NODE":83.5483,"ARG_OF_PERICENTER":282.8655,"MEAN_ANOMALY":92.0489,"EPHEMERIS_TYPE":0,"CLASSIFICATION_TYPE":"U","NORAD_CAT_ID":30434,"ELEMENT_SET_NO":999,"REV_AT_EPOCH":97284,"BSTAR":0.0004070784,"MEAN_MOTION_DOT":4.95e-6,"MEAN_MOTION_DDOT":0},{"OBJECT_NAME":"FENGYUN 1C DEB","OBJECT_ID":"1999-025AEW","EPOCH":"2026-04-05T05:05:37.870368","MEAN_MOTION":13.80325731,"ECCENTRICITY":0.0208926,"INCLINATION":99.0292,"RA_OF_ASC_NODE":81.3098,"ARG_OF_PERICENTER":168.3054,"MEAN_ANOMALY":204.3364,"EPHEMERIS_TYPE":0,"CLASSIFICATION_TYPE":"U","NORAD_CAT_ID":30435,"ELEMENT_SET_NO":999,"REV_AT_EPOCH":95725,"BSTAR":0.0026330661,"MEAN_MOTION_DOT":3.201e-5,"MEAN_MOTION_DDOT":0},{"OBJECT_NAME":"FENGYUN 1C DEB","OBJECT_ID":"1999-025AEX","EPOCH":"2026-04-05T04:16:01.595136","MEAN_MOTION":14.23617835,"ECCENTRICITY":0.00955178,"INCLINATION":98.4216,"RA_OF_ASC_NODE":349.3144,"ARG_OF_PERICENTER":162.3167,"MEAN_ANOMALY":350.2914,"EPHEMERIS_TYPE":0,"CLASSIFICATION_TYPE":"U","NORAD_CAT_ID":30436,"ELEMENT_SET_NO":999,"REV_AT_EPOCH":98050,"BSTAR":0.0022800123,"MEAN_MOTION_DOT":5.409e-5,"MEAN_MOTION_DDOT":0},{"OBJECT_NAME":"FENGYUN 1C DEB","OBJECT_ID":"1999-025AEY","EPOCH":"2026-04-05T01:31:51.297024","MEAN_MOTION":14.94148687,"ECCENTRICITY":0.00325906,"INCLINATION":98.906,"RA_OF_ASC_NODE":134.4149,"ARG_OF_PERICENTER":101.3155,"MEAN_ANOMALY":289.1535,"EPHEMERIS_TYPE":0,"CLASSIFICATION_TYPE":"U","NORAD_CAT_ID":30437,"ELEMENT_SET_NO":999,"REV_AT_EPOCH":874,"BSTAR":0.0028247919,"MEAN_MOTION_DOT":0.00030593,"MEAN_MOTION_DDOT":0},{"OBJECT_NAME":"FENGYUN 1C DEB","OBJECT_ID":"1999-025AEZ","EPOCH":"2026-04-04T11:59:54.483360","MEAN_MOTION":13.92558063,"ECCENTRICITY":0.01326622,"INCLINATION":98.7446,"RA_OF_ASC_NODE":110.2716,"ARG_OF_PERICENTER":236.4445,"MEAN_ANOMALY":122.399,"EPHEMERIS_TYPE":0,"CLASSIFICATION_TYPE":"U","NORAD_CAT_ID":30438,"ELEMENT_SET_NO":999,"REV_AT_EPOCH":96875,"BSTAR":0.0012694001,"MEAN_MOTION_DOT":1.717e-5,"MEAN_MOTION_DDOT":0}]
