FENGYUN 1C DEB          
1 30406U 99025ADV 26095.15517067  .00001948  00000+0  20631-2 0  9997
2 30406  98.6165 337.3741 0280597  63.5108  85.2906 13.59605422947076
FENGYUN 1C DEB          
1 30409U 99025ADY 26094.94801690  .00002030  00000+0  11527-2 0  9991
2 30409  98.4875  79.8303 0168093  45.7258  14.2197 14.04059769980182
FENGYUN 1C DEB          
1 30411U 99025AEA 26095.26511106  .00003953  00000+0  21752-2 0  9996
2 30411  98.5793   5.3335 0120651 144.2620 216.6702 14.08520508975812
FENGYUN 1C DEB          
1 30413U 99025AEC 26095.30504045  .00006703  00000+0  23942-2 0  9996
2 30413 102.0609  17.3219 0045399 281.5599 208.4454 14.34051440987662
FENGYUN 1C DEB          
1 30414U 99025AED 26095.27549338  .00008186  00000+0  27919-2 0  9992
2 30414  99.0893 263.4047 0056957 214.9987 144.7448 14.35774630987152
FENGYUN 1C DEB          
1 30415U 99025AEE 26094.14327220  .00001711  00000+0  16710-2 0  9996
2 30415  99.6358 159.5215 0233451 341.6075  46.0221 13.69329522954169
FENGYUN 1C DEB          
1 30416U 99025AEF 26094.35480667  .00000766  00000+0  51666-3 0  9994
2 30416  98.8243 120.3529 0054672 235.3352 124.2654 14.02726650982038
FENGYUN 1C DEB          
1 30417U 99025AEG 26095.26622527  .00000564  00000+0  30853-3 0  9990
2 30417  98.7042  87.3584 0063951 155.1291 222.7820 14.14811439989948
FENGYUN 1C DEB          
1 30418U 99025AEH 26093.99325416  .00016927  00000+0  17350-2 0  9992
2 30418  98.8517 271.1297 0107540 118.0295  12.5673 14.86286706 22587
FENGYUN 1C DEB          
1 30419U 99025AEJ 26095.14788963  .00001657  00000+0  81417-3 0  9992
2 30419  99.2527  51.6286 0053069  63.8254 311.6964 14.18435415989565
FENGYUN 1C DEB          
1 30432U 99025AET 26095.16725053  .00002953  00000+0  89280-3 0  9996
2 30432  98.8291   2.7715 0082670   2.1520 358.0007 14.41201811  3689
FENGYUN 1C DEB          
1 30434U 99025AEV 26095.20565402  .00000495  00000+0  40708-3 0  9994
2 30434  99.0126  83.5483 0120307 282.8655  92.0489 13.90772333972843
FENGYUN 1C DEB          
1 30435U 99025AEW 26095.21224387  .00003201  00000+0  26331-2 0  9993
2 30435  99.0292  81.3098 0208926 168.3054 204.3364 13.80325731957254
FENGYUN 1C DEB          
1 30436U 99025AEX 26095.17779624  .00005409  00000+0  22800-2 0  9997
2 30436  98.4216 349.3144 0095517 162.3167 350.2914 14.23617835980505
FENGYUN 1C DEB          
1 30437U 99025AEY 26095.06378816  .00030593  00000+0  28248-2 0  9998
2 30437  98.9060 134.4149 0032590 101.3155 289.1535 14.94148687  8746
FENGYUN 1C DEB          
1 30438U 99025AEZ 26094.49993615  .00001717  00000+0  12694-2 0  9999
2 30438  98.7446 110.2716 0132662 236.4445 122.3990 13.92558063968757
